NORAD_CAT_ID,OBJECT_NAME,OBJECT_TYPE,EPOCH,MEAN_MOTION,ECCENTRICITY,INCLINATION,RA_OF_ASC_NODE,ARG_OF_PERICENTER,MEAN_ANOMALY,BSTAR,MEAN_MOTION_DOT,MEAN_MOTION_DDOT,TLE_LINE0,TLE_LINE1,TLE_LINE2,SEMIMAJOR_AXIS,PERIOD,APOGEE,PERIGEE,DECAYED
55669.0,STARLINK-5459,PAYLOAD,2024-04-29 22:28:52,14.98325315,0.0002705,70.0006,75.8451,269.4588,90.6261,0.00022418,2.583e-05,0.0,0 STARLINK-5459,1 55669U 23021AT  24120.93672002  .00002583  00000-0  22418-3 0  9995,2 55669  70.0006  75.8451 0002705 269.4588  90.6261 14.98325315 67617,6950.207,96.107,573.952,570.192,0.0
55669.0,STARLINK-5459,PAYLOAD,2024-04-30 06:29:32,14.98329282,0.0002657,70.0,75.0039,264.1537,95.9319,0.00018317,2.093e-05,0.0,0 STARLINK-5459,1 55669U 23021AT  24121.27051871  .00002093  00000-0  18317-3 0  9997,2 55669  70.0000  75.0039 0002657 264.1537  95.9319 14.98329282 67661,6950.195,96.107,573.907,570.213,0.0
55669.0,STARLINK-5459,PAYLOAD,2024-04-30 14:30:14,14.98305593,0.0002621,69.9999,74.1613,281.5813,78.5052,0.00057049,6.716e-05,0.0,0 STARLINK-5459,1 55669U 23021AT  24121.60433035  .00006716  00000-0  57049-3 0  9991,2 55669  69.9999  74.1613 0002621 281.5813  78.5052 14.98305593 67417,6950.268,96.109,573.955,570.312,0.0
55669.0,STARLINK-5459,PAYLOAD,2024-04-30 22:30:53,14.98330622,0.0002894,69.9999,73.3197,269.6656,90.4171,0.00011542,1.284e-05,0.0,0 STARLINK-5459,1 55669U 23021AT  24121.93811899  .00001284  00000-0  11542-3 0  9998,2 55669  69.9999  73.3197 0002894 269.6656  90.4171 14.98330622 67763,6950.191,96.107,574.067,570.045,0.0
55669.0,STARLINK-5459,PAYLOAD,2024-05-01 04:55:25,14.98339526,0.0002671,69.9997,72.646,266.4155,93.6699,1.1021e-05,3.9e-07,0.0,0 STARLINK-5459,1 55669U 23021AT  24122.20515494  .00000039  00000-0  11021-4 0  9991,2 55669  69.9997  72.6460 0002671 266.4155  93.6699 14.98339526 67502,6950.163,96.106,573.885,570.172,0.0
55669.0,STARLINK-5459,PAYLOAD,2024-05-01 06:31:33,14.98340057,0.0002666,69.9998,72.4777,266.4947,93.5907,1.6798e-05,1.08e-06,0.0,0 STARLINK-5459,1 55669U 23021AT  24122.27191414  .00000108  00000-0  16798-4 0  9993,2 55669  69.9998  72.4777 0002666 266.4947  93.5907 14.98340057 67811,6950.162,96.106,573.88,570.174,0.0
55669.0,STARLINK-5459,PAYLOAD,2024-05-01 19:20:37,14.98355687,0.0002726,69.9999,71.131,273.1085,86.9763,-0.00034714,-4.235e-05,0.0,0 STARLINK-5459,1 55669U 23021AT  24122.80599114 -.00004235  00000-0 -34714-3 0  9995,2 55669  69.9999  71.1310 0002726 273.1085  86.9763 14.98355687 67895,6950.113,96.105,573.873,570.084,0.0
55669.0,STARLINK-5459,PAYLOAD,2024-05-02 04:57:27,14.98286539,0.0002552,69.9999,70.1216,274.692,85.3948,0.00089312,0.00010567,0.0,0 STARLINK-5459,1 55669U 23021AT  24123.20656913  .00010567  00000-0  89312-3 0  9998,2 55669  69.9999  70.1216 0002552 274.6920  85.3948 14.98286539 67651,6950.327,96.11,573.966,570.419,0.0
55669.0,STARLINK-5459,PAYLOAD,2024-05-02 06:33:35,14.98289132,0.0002553,69.9999,69.9533,274.3712,85.7155,0.00086648,0.0001025,0.0,0 STARLINK-5459,1 55669U 23021AT  24123.27332926  .00010250  00000-0  86648-3 0  9998,2 55669  69.9999  69.9533 0002553 274.3712  85.7155 14.98289132 67966,6950.319,96.11,573.959,570.41,0.0
55669.0,STARLINK-5459,PAYLOAD,2024-05-02 20:58:46,14.98332012,0.0002812,69.9999,68.4385,270.7219,89.3618,8.2975e-05,8.97e-06,0.0,0 STARLINK-5459,1 55669U 23021AT  24123.87415306  .00000897  00000-0  82975-4 0  9994,2 55669  69.9999  68.4385 0002812 270.7219  89.3618 14.98332012 67752,6950.187,96.107,574.006,570.097,0.0
55669.0,STARLINK-5459,PAYLOAD,2024-05-03 04:59:26,14.9833904,0.0002731,70.0001,67.5969,268.8735,91.2111,0.00019232,2.203e-05,0.0,0 STARLINK-5459,1 55669U 23021AT  24124.20794485  .00002203  00000-0  19232-3 0  9998,2 55669  70.0001  67.5969 0002731 268.8735  91.2111 14.98339040 67802,6950.165,96.106,573.928,570.132,0.0
55669.0,STARLINK-5459,PAYLOAD,2024-05-03 13:00:08,14.9832173,0.0002117,70.0014,66.7559,272.5146,87.5771,-5.0634e-05,-6.97e-06,0.0,0 STARLINK-5459,1 55669U 23021AT  24124.54176316 -.00000697  00000-0 -50634-4 0  9991,2 55669  70.0014  66.7559 0002117 272.5146  87.5771 14.98321730 67850,6950.218,96.108,573.555,570.612,0.0
55669.0,STARLINK-5459,PAYLOAD,2024-05-03 22:36:57,14.98312793,0.0002474,70.001,65.7482,269.1751,90.9125,-4.5009e-05,-6.3e-06,0.0,0 STARLINK-5459,1 55669U 23021AT  24124.94232961 -.00000630  00000-0 -45009-4 0  9991,2 55669  70.0010  65.7482 0002474 269.1751  90.9125 14.98312793 68211,6950.246,96.108,573.831,570.392,0.0
55669.0,STARLINK-5459,PAYLOAD,2024-05-04 05:01:30,14.98304599,0.0002691,70.0022,65.0774,260.8728,99.2126,-0.00019078,-2.367e-05,0.0,0 STARLINK-5459,1 55669U 23021AT  24125.20938176 -.00002367  00000-0 -19078-3 0  9997,2 55669  70.0022  65.0774 0002691 260.8728  99.2126 14.98304599 67952,6950.271,96.109,574.007,570.266,0.0
55669.0,STARLINK-5459,PAYLOAD,2024-05-04 13:02:10,14.9831543,0.0002874,70.0007,64.2322,266.6595,93.4235,-0.00010911,-1.394e-05,0.0,0 STARLINK-5459,1 55669U 23021AT  24125.54317551 -.00001394  00000-0 -10911-3 0  9998,2 55669  70.0007  64.2322 0002874 266.6595  93.4235 14.98315430 68004,6950.238,96.108,574.1,570.105,0.0
55669.0,STARLINK-5459,PAYLOAD,2024-05-04 21:02:50,14.98328629,0.0002942,70.0003,63.3899,264.7129,95.3694,-3.3927e-05,-4.98e-06,0.0,0 STARLINK-5459,1 55669U 23021AT  24125.87696761 -.00000498  00000-0 -33927-4 0  9994,2 55669  70.0003  63.3899 0002942 264.7129  95.3694 14.98328629 68056,6950.197,96.107,574.107,570.017,0.0
55669.0,STARLINK-5459,PAYLOAD,2024-05-05 05:03:30,14.98334636,0.0003058,69.9998,62.5469,270.1007,89.9801,4.5472e-05,4.5e-06,0.0,0 STARLINK-5459,1 55669U 23021AT  24126.21076412  .00000450  00000-0  45472-4 0  9992,2 55669  69.9998  62.5469 0003058 270.1007  89.9801 14.98334636 68408,6950.179,96.107,574.169,569.918,0.0
55669.0,STARLINK-5459,PAYLOAD,2024-05-05 21:04:50,14.98327615,0.0003206,69.9998,60.8635,270.0611,90.0181,0.00050221,5.904e-05,0.0,0 STARLINK-5459,1 55669U 23021AT  24126.87836151  .00005904  00000-0  50221-3 0  9994,2 55669  69.9998  60.8635 0003206 270.0611  90.0181 14.98327615 68200,6950.2,96.107,574.294,569.837,0.0
55669.0,STARLINK-5459,PAYLOAD,2024-05-05 22:40:58,14.98330739,0.0003198,69.9999,60.6952,269.8452,90.234,0.00054857,6.459e-05,0.0,0 STARLINK-5459,1 55669U 23021AT  24126.94512105  .00006459  00000-0  54857-3 0  9997,2 55669  69.9999  60.6952 0003198 269.8452  90.2340 14.98330739 68514,6950.191,96.107,574.278,569.833,0.0
55669.0,STARLINK-5459,PAYLOAD,2024-05-06 05:05:29,14.98374332,0.0003133,70.0013,60.0214,270.2361,89.8439,0.0013327,0.00015863,0.0,0 STARLINK-5459,1 55669U 23021AT  24127.21214889  .00015863  00000-0  13327-2 0  9991,2 55669  70.0013  60.0214 0003133 270.2361  89.8439 14.98374332 68254,6950.056,96.104,574.098,569.743,0.0
55669.0,STARLINK-5459,PAYLOAD,2024-05-06 13:06:09,14.98370962,0.0002979,70.0016,59.1795,273.9223,86.1595,0.00099761,0.00011843,0.0,0 STARLINK-5459,1 55669U 23021AT  24127.54594720  .00011843  00000-0  99761-3 0  9993,2 55669  70.0016  59.1795 0002979 273.9223  86.1595 14.98370962 68308,6950.066,96.104,574.002,569.861,0.0
55669.0,STARLINK-5459,PAYLOAD,2024-05-06 21:06:50,14.98347895,0.000289,70.0024,58.3385,272.4738,87.609,-5.566e-06,-1.59e-06,0.0,0 STARLINK-5459,1 55669U 23021AT  24127.87974908 -.00000159  00000-0 -55660-5 0  9991,2 55669  70.0024  58.3385 0002890 272.4738  87.6090 14.98347895 68350,6950.138,96.106,574.011,569.994,0.0
55669.0,STARLINK-5459,PAYLOAD,2024-05-06 22:42:58,14.98349184,0.0002897,70.0025,58.1701,272.0579,88.0248,-0.00021056,-2.606e-05,0.0,0 STARLINK-5459,1 55669U 23021AT  24127.94650605 -.00002606  00000-0 -21056-3 0  9993,2 55669  70.0025  58.1701 0002897 272.0579  88.0248 14.98349184 68664,6950.134,96.106,574.012,569.985,0.0
55669.0,STARLINK-5459,PAYLOAD,2024-05-07 13:08:10,14.98329636,0.0002491,70.0035,56.6553,273.1155,86.9719,6.5019e-05,6.83e-06,0.0,0 STARLINK-5459,1 55669U 23021AT  24128.54734752  .00000683  00000-0  65019-4 0  9995,2 55669  70.0035  56.6553 0002491 273.1155  86.9719 14.98329636 68452,6950.194,96.107,573.79,570.328,0.0
55669.0,STARLINK-5459,PAYLOAD,2024-05-07 21:08:51,14.98321618,0.0002517,70.0034,55.8142,275.7596,84.3276,0.00016604,1.888e-05,0.0,0 STARLINK-5459,1 55669U 23021AT  24128.88115168  .00001888  00000-0  16604-3 0  9999,2 55669  70.0034  55.8142 0002517 275.7596  84.3276 14.98321618 68803,6950.219,96.108,573.833,570.334,0.0
55669.0,STARLINK-5459,PAYLOAD,2024-05-08 05:09:31,14.98333336,0.0002776,70.0024,54.9725,269.81,90.2741,-0.00022242,-2.746e-05,0.0,0 STARLINK-5459,1 55669U 23021AT  24129.21494897 -.00002746  00000-0 -22242-3 0  9997,2 55669  70.0024  54.9725 0002776 269.8100  90.2741 14.98333336 68859,6950.183,96.107,573.977,570.118,0.0
55669.0,STARLINK-5459,PAYLOAD,2024-05-08 21:10:52,14.98332816,0.0002694,70.0024,53.2894,270.1137,89.9713,0.00035524,4.148e-05,0.0,0 STARLINK-5459,1 55669U 23021AT  24129.88255285  .00004148  00000-0  35524-3 0  9999,2 55669  70.0024  53.2894 0002694 270.1137  89.9713 14.98332816 68656,6950.184,96.107,573.922,570.177,0.0
55669.0,STARLINK-5459,PAYLOAD,2024-05-08 22:47:00,14.98333601,0.0002654,70.0029,53.1211,270.7637,89.3218,0.00036691,4.288e-05,0.0,0 STARLINK-5459,1 55669U 23021AT  24129.94931281  .00004288  00000-0  36691-3 0  9994,2 55669  70.0029  53.1211 0002654 270.7637  89.3218 14.98333601 68961,6950.182,96.107,573.891,570.202,0.0
55669.0,STARLINK-5459,PAYLOAD,2024-05-09 11:36:03,14.98382771,0.0002443,70.0035,51.775,271.3426,88.7453,0.0016822,0.00020063,0.0,0 STARLINK-5459,1 55669U 23021AT  24130.48337315  .00020063  00000-0  16822-2 0  9995,2 55669  70.0035  51.7750 0002443 271.3426  88.7453 14.98382771 68741,6950.03,96.104,573.593,570.197,0.0
55669.0,STARLINK-5459,PAYLOAD,2024-05-09 21:12:53,14.98316828,0.0003991,70.0025,50.7649,295.2872,64.7873,-0.00037855,-4.606e-05,0.0,0 STARLINK-5459,1 55669U 23021AT  24130.88394871 -.00004606  00000-0 -37855-3 0  9996,2 55669  70.0025  50.7649 0003991 295.2872  64.7873 14.98316828 68802,6950.234,96.108,574.872,569.325,0.0
